HORUS 2                 
1 55844U 23032A   26156.75911856  .00006732  00000+0  28665-3 0  9995
2 55844  97.3532 232.3897 0002056 115.0721 245.0729 15.23301506179744
GLOBAL-19               
1 55982U 23041B   26153.81309494  .00015983  00000+0  41206-3 0  9995
2 55982  42.0025 285.7177 0007391 249.6784 110.3261 15.38861461179713
BRO-9                   
1 56185U 23054H   26156.56134100  .00356675  51094-4  10095-2 0  9991
2 56185  97.2930  74.0944 0006770 129.1901 230.9976 15.93368510177235
ION SCV-010             
1 56192U 23054Q   26156.42352236  .00004797  00000+0  18861-3 0  9997
2 56192  97.3791  46.0747 0011256 242.4131 117.5965 15.26091325174405
TELEOS-2                
1 56310U 23057C   26156.69206669 -.00001735  00000+0 -20835-3 0  9994
2 56310   9.9866 287.9143 0001223  55.8311 304.2018 14.96374918171076
SNIPE 4                 
1 56744U 23072B   26156.72886122  .00024499  00000+0  57771-3 0  9993
2 56744  97.5261   2.3740 0005532  22.4729 337.6759 15.41883731168348
SNIPE 2                 
1 56745U 23072C   26156.73990023  .00032876  00000+0  66754-3 0  9990
2 56745  97.5255   5.3507 0005333  52.1176 308.0554 15.46264916168473
2023-072G               
1 56749U 23072G   26156.76751458  .00032016  00000+0  57328-3 0  9997
2 56749  97.4918   4.1700 0004116  44.1309 316.0270 15.49904304168694
GEISAT PRECURSOR        
1 56934U 23084C   26156.67731697  .00007880  00000+0  23827-3 0  9997
2 56934  97.6215 297.2540 0006076  39.1142 321.0539 15.34489769165761
BLACKJACK ACES-3        
1 56950U 23084U   26156.63773818  .00005967  00000+0  29347-3 0  9999
2 56950  97.6203 291.7433 0003489  64.3417 295.8177 15.18398859165415
BLACKJACK ACES-2        
1 56955U 23084Z   26156.38084985  .00007027  00000+0  34439-3 0  9993
2 56955  97.6200 291.5677 0001715  75.1144 285.0279 15.18458005165382
BLACKJACK ACES-1        
1 56956U 23084AA  26156.63254487  .00007501  00000+0  36746-3 0  9998
2 56956  97.6191 291.5962 0001339  96.1713 263.9673 15.18451863115143
ION SCV-011             
1 56957U 23084AB  26156.48119270  .00005769  00000+0  20950-3 0  9996
2 56957  98.1383 342.6767 0008504  80.7666 279.4533 15.28727657164027
GHOST-3                 
1 56958U 23084AC  26156.39638861  .00017782  00000+0  34776-3 0  9998
2 56958  97.6207 304.3407 0005814 344.0484  16.0581 15.47484128166190
TOMORROW-R2             
1 56962U 23084AG  26156.43499399  .00315904  43228-4  67289-3 0  9995
2 56962  97.5967 319.0228 0005787 249.1830 110.8828 15.98648472167176
AFR-1                   
1 56964U 23084AJ  26156.71047025  .00005095  00000+0  18651-3 0  9995
2 56964  97.6264 293.1273 0011003  27.1554 333.0259 15.28455022165474
METEOR-M2 3             
1 57166U 23091A   26156.71597524  .00000008  00000+0  22268-4 0  9991
2 57166  98.6086 211.9285 0003687 186.6176 173.4955 14.24045853152885
UMKA 1 (RS40S)          
1 57172U 23091G   26156.71069500  .00007719  00000+0  35360-3 0  9998
2 57172  97.5051 215.4529 0013615 153.9596 206.2326 15.20682241162262
2023-091H               
1 57173U 23091H   26156.59562551  .00012855  00000+0  46693-3 0  9997
2 57173  97.5048 219.6957 0010850 148.6241 211.5648 15.28374338162535
2023-091J               
1 57174U 23091J   26156.68749660  .00004651  00000+0  26040-3 0  9995
2 57174  97.5057 209.9482 0013303 180.7275 179.3940 15.13846799161894
CUBEBEL 2 (EU11S)       
1 57175U 23091K   26156.60029520  .00013277  00000+0  47502-3 0  9994
2 57175  97.5050 219.7160 0010854 150.2965 209.8893 15.28863581162538
SITRO-AIS 5 (KATYS)     
1 57176U 23091L   26156.61965171  .00012808  00000+0  45372-3 0  9999
2 57176  97.5060 220.4112 0012582 139.3648 220.8533 15.29178062162574
ZORKIY-2M 1             
1 57177U 23091M   26156.69766234  .00008272  00000+0  37786-3 0  9997
2 57177  97.5092 215.7005 0014239 151.3888 208.8131 15.20748227162251
CUBESX-HSE 3 (RS42S)    
1 57178U 23091N   26156.60585060  .00014723  00000+0  49411-3 0  9991
2 57178  97.5091 222.0491 0012038 130.4685 229.7608 15.30909781162659
MONITOR-3 (RS58S)       
1 57180U 23091Q   26156.53950691  .00011568  00000+0  43026-3 0  9992
2 57180  97.5082 219.9019 0012904 136.9838 223.2412 15.27595956162514
MONITOR-4 (RS57S)       
1 57182U 23091S   26156.65025021  .00011516  00000+0  42704-3 0  9992
2 57182  97.5077 219.9840 0012889 136.9568 223.2681 15.27696670162539
MONITOR-2 (RS39S)       
1 57184U 23091U   26156.71764664  .00006103  00000+0  29609-3 0  9999
2 57184  97.5073 215.0752 0012189 146.5913 213.6092 15.18799840162217
SVYATOBOR 1 (RS60S)     
1 57187U 23091X   26156.71909206  .00010970  00000+0  42331-3 0  9999
2 57187  97.5089 220.4741 0010794 128.9922 231.2279 15.26414198162569
HORS 1                  
1 57188U 23091Y   26156.70541038  .00010750  00000+0  41369-3 0  9990
2 57188  97.5067 220.2244 0010265 128.4626 231.7535 15.26514537162569
VIZARD-METEO (RS38S)    
1 57189U 23091Z   26156.61555215  .00017918  00000+0  51824-3 0  9993
2 57189  97.5090 225.8719 0008751 111.8357 248.3818 15.35641651162913
