OBJECT_NAME,OBJECT_ID,EPOCH,MEAN_MOTION,ECCENTRICITY,INCLINATION,RA_OF_ASC_NODE,ARG_OF_PERICENTER,MEAN_ANOMALY,EPHEMERIS_TYPE,CLASSIFICATION_TYPE,NORAD_CAT_ID,ELEMENT_SET_NO,REV_AT_EPOCH,BSTAR,MEAN_MOTION_DOT,MEAN_MOTION_DDOT
HORUS 2,2023-032A,2026-06-05T18:13:07.843584,15.23301506,.0002056,97.3532,232.3897,115.0721,245.0729,0,U,55844,999,17974,.28665E-3,.6732E-4,0
GLOBAL-19,2023-041B,2026-06-02T19:30:51.402816,15.38861461,.00073919,42.0025,285.7177,249.6784,110.3261,0,U,55982,999,17971,.4120608E-3,.15983E-3,0
BRO-9,2023-054H,2026-06-05T13:28:19.862400,15.93368510,.000677,97.2930,74.0944,129.1901,230.9976,0,U,56185,999,17723,.10095E-2,.356675E-2,.51094E-4
ION SCV-010,2023-054Q,2026-06-05T10:09:52.331904,15.26091325,.0011256,97.3791,46.0747,242.4131,117.5965,0,U,56192,999,17440,.18861E-3,.4797E-4,0
TELEOS-2,2023-057C,2026-06-05T16:36:34.562016,14.96374918,.0001223,9.9866,287.9143,55.8311,304.2018,0,U,56310,999,17107,-.20835E-3,-.1735E-4,0
SNIPE 4,2023-072B,2026-06-05T17:29:33.609408,15.41883731,.0005532,97.5261,2.3740,22.4729,337.6759,0,U,56744,999,16834,.57771E-3,.24499E-3,0
SNIPE 2,2023-072C,2026-06-05T17:45:27.379872,15.46264916,.0005333,97.5255,5.3507,52.1176,308.0554,0,U,56745,999,16847,.66754E-3,.32876E-3,0
2023-072G,2023-072G,2026-06-05T18:25:13.259712,15.49904304,.0004116,97.4918,4.1700,44.1309,316.0270,0,U,56749,999,16869,.57328E-3,.32016E-3,0
GEISAT PRECURSOR,2023-084C,2026-06-05T16:15:20.186208,15.34489769,.0006076,97.6215,297.2540,39.1142,321.0539,0,U,56934,999,16576,.23827E-3,.788E-4,0
BLACKJACK ACES-3,2023-084U,2026-06-05T15:18:20.578752,15.18398859,.0003489,97.6203,291.7433,64.3417,295.8177,0,U,56950,999,16541,.29347E-3,.5967E-4,0
BLACKJACK ACES-2,2023-084Z,2026-06-05T09:08:25.427040,15.18458005,.0001715,97.6200,291.5677,75.1144,285.0279,0,U,56955,999,16538,.34439E-3,.7027E-4,0
BLACKJACK ACES-1,2023-084AA,2026-06-05T15:10:51.876768,15.18451863,.0001339,97.6191,291.5962,96.1713,263.9673,0,U,56956,999,11514,.36746E-3,.7501E-4,0
ION SCV-011,2023-084AB,2026-06-05T11:32:55.049280,15.28727657,.0008504,98.1383,342.6767,80.7666,279.4533,0,U,56957,999,16402,.2095E-3,.5769E-4,0
GHOST-3,2023-084AC,2026-06-05T09:30:47.975904,15.47484128,.0005814,97.6207,304.3407,344.0484,16.0581,0,U,56958,999,16619,.34776E-3,.17782E-3,0
TOMORROW-R2,2023-084AG,2026-06-05T10:26:23.480736,15.98648472,.0005787,97.5967,319.0228,249.1830,110.8828,0,U,56962,999,16717,.67289E-3,.315904E-2,.43228E-4
AFR-1,2023-084AJ,2026-06-05T17:03:04.629600,15.28455022,.0011003,97.6264,293.1273,27.1554,333.0259,0,U,56964,999,16547,.18651E-3,.5095E-4,0
METEOR-M2 3,2023-091A,2026-06-05T17:11:00.260736,14.24045853,.0003687,98.6086,211.9285,186.6176,173.4955,0,U,57166,999,15288,.22268E-4,.8E-7,0
UMKA 1 (RS40S),2023-091G,2026-06-05T17:03:24.048000,15.20682241,.0013615,97.5051,215.4529,153.9596,206.2326,0,U,57172,999,16226,.3536E-3,.7719E-4,0
2023-091H,2023-091H,2026-06-05T14:17:42.044064,15.28374338,.001085,97.5048,219.6957,148.6241,211.5648,0,U,57173,999,16253,.46693E-3,.12855E-3,0
2023-091J,2023-091J,2026-06-05T16:29:59.706240,15.13846799,.0013303,97.5057,209.9482,180.7275,179.3940,0,U,57174,999,16189,.2604E-3,.4651E-4,0
CUBEBEL 2 (EU11S),2023-091K,2026-06-05T14:24:25.505280,15.28863581,.0010854,97.5050,219.7160,150.2965,209.8893,0,U,57175,999,16253,.47502E-3,.13277E-3,0
SITRO-AIS 5 (KATYS),2023-091L,2026-06-05T14:52:17.907744,15.29178062,.0012582,97.5060,220.4112,139.3648,220.8533,0,U,57176,999,16257,.45372E-3,.12808E-3,0
ZORKIY-2M 1,2023-091M,2026-06-05T16:44:38.026176,15.20748227,.0014239,97.5092,215.7005,151.3888,208.8131,0,U,57177,999,16225,.37786E-3,.8272E-4,0
CUBESX-HSE 3 (RS42S),2023-091N,2026-06-05T14:32:25.491840,15.30909781,.0012038,97.5091,222.0491,130.4685,229.7608,0,U,57178,999,16265,.49411E-3,.14723E-3,0
MONITOR-3 (RS58S),2023-091Q,2026-06-05T12:56:53.397024,15.27595956,.0012904,97.5082,219.9019,136.9838,223.2412,0,U,57180,999,16251,.43026E-3,.11568E-3,0
MONITOR-4 (RS57S),2023-091S,2026-06-05T15:36:21.618144,15.27696670,.0012889,97.5077,219.9840,136.9568,223.2681,0,U,57182,999,16253,.42704E-3,.11516E-3,0
MONITOR-2 (RS39S),2023-091U,2026-06-05T17:13:24.669696,15.18799840,.0012189,97.5073,215.0752,146.5913,213.6092,0,U,57184,999,16221,.29609E-3,.6103E-4,0
SVYATOBOR 1 (RS60S),2023-091X,2026-06-05T17:15:29.553984,15.26414198,.0010794,97.5089,220.4741,128.9922,231.2279,0,U,57187,999,16256,.42331E-3,.1097E-3,0
HORS 1,2023-091Y,2026-06-05T16:55:47.456832,15.26514537,.0010265,97.5067,220.2244,128.4626,231.7535,0,U,57188,999,16256,.41369E-3,.1075E-3,0
VIZARD-METEO (RS38S),2023-091Z,2026-06-05T14:46:23.705760,15.35641651,.0008751,97.5090,225.8719,111.8357,248.3818,0,U,57189,999,16291,.51824E-3,.17918E-3,0
